{
    "links": {
        "self": "http://www.neowsapp.com/rest/v1/neo/3728909?api_key=iIulBulltgU6a56xZRHN4H3l9WmuAYTsLGpBGhQ2"
    },
    "id": "3728909",
    "neo_reference_id": "3728909",
    "name": "(2015 TB1)",
    "designation": "2015 TB1",
    "nasa_jpl_url": "http://ssd.jpl.nasa.gov/sbdb.cgi?sstr=3728909",
    "absolute_magnitude_h": 26.4,
    "estimated_diameter": {
        "kilometers": {
            "estimated_diameter_min": 0.0139493823,
            "estimated_diameter_max": 0.0311917671
        },
        "meters": {
            "estimated_diameter_min": 13.9493822934,
            "estimated_diameter_max": 31.1917670523
        },
        "miles": {
            "estimated_diameter_min": 0.0086677416,
            "estimated_diameter_max": 0.0193816595
        },
        "feet": {
            "estimated_diameter_min": 45.7656914036,
            "estimated_diameter_max": 102.3351970157
        }
    },
    "is_potentially_hazardous_asteroid": false,
    "close_approach_data": [
        {
            "close_approach_date": "2015-09-27",
            "close_approach_date_full": "2015-Sep-27 17:58",
            "epoch_date_close_approach": 1443376680000,
            "relative_velocity": {
                "kilometers_per_second": "8.2542767719",
                "kilometers_per_hour": "29715.3963789043",
                "miles_per_hour": "18463.9917111031"
            },
            "miss_distance": {
                "astronomical": "0.0273475878",
                "lunar": "10.6382116542",
                "kilometers": "4091140.884517986",
                "miles": "2542117.0661047668"
            },
            "orbiting_body": "Earth"
        }
    ],
    "orbital_data": {
        "orbit_id": "9",
        "orbit_determination_date": "2017-04-06 08:31:36",
        "first_observation_date": "2015-10-02",
        "last_observation_date": "2015-10-15",
        "data_arc_in_days": 13,
        "observations_used": 33,
        "orbit_uncertainty": "8",
        "minimum_orbit_intersection": ".0145452",
        "jupiter_tisserand_invariant": "3.127",
        "epoch_osculation": "2457301.5",
        "eccentricity": ".6070915031989941",
        "semi_major_axis": "2.595930340494593",
        "inclination": "1.109615651369745",
        "ascending_node_longitude": "359.9075562352797",
        "orbital_period": "1527.699647547819",
        "perihelion_distance": "1.019963087883854",
        "perihelion_argument": "352.6756809440665",
        "aphelion_distance": "4.171897593105331",
        "perihelion_time": "2457284.270135391756",
        "mean_anomaly": "4.060190279499088",
        "mean_motion": ".2356484146460677",
        "equinox": "J2000",
        "orbit_class": {
            "orbit_class_type": "AMO",
            "orbit_class_description": "Near-Earth asteroid orbits similar to that of 1221 Amor",
            "orbit_class_range": "1.017 AU < q (perihelion) < 1.3 AU"
        }
    },
    "is_sentry_object": false
}